0 ANIK F1
1 26624U 00076A   13283.30000000 -.00000091  00000-0  00000+0 0  1355
2 26624 000.0270 128.6240 0002789 035.8210 215.3160 01.00272397 47289
0 ANIK F1
1 26624U 00076A   13284.39751756 -.00000094  00000-0  00000+0 0  1360
2 26624 000.0255 143.1140 0002581 028.1061 244.7407 01.00271301 47297
0 ANIK F1
1 26624U 00076A   13285.36855975 -.00000097  00000-0  00000+0 0  1370
2 26624 000.0264 134.1253 0003272 021.7885 250.5922 01.00271744 47303
0 ANIK F1
1 26624U 00076A   13286.36078781 -.00000099  00000-0  00000+0 0  1386
2 26624 000.0238 142.5174 0003981 004.9284 257.2465 01.00271516 47316
0 ANIK F1
1 26624U 00076A   13287.44125289 -.00000100  00000-0  00000+0 0  1396
2 26624 000.0267 138.2866 0002547 047.6692 248.7494 01.00272289 47328
0 ANIK F1
1 26624U 00076A   13288.42424560 -.00000099  00000-0  00000+0 0  1408
2 26624 000.0271 140.8068 0003476 041.3716 247.3834 01.00272247 47334
0 ANIK F1
1 26624U 00076A   13289.50692007 -.00000098  00000-0  00000+0 0  1411
2 26624 000.0259 143.3588 0003025 039.6177 277.4112 01.00272275 47341
0 ANIK F1
1 26624U 00076A   13290.56237862 -.00000096  00000-0  00000+0 0  1422
2 26624 000.0253 147.2237 0002938 039.2963 294.8705 01.00272070 47355
0 ANIK F1
1 26624U 00076A   13292.41739473 -.00000092  00000-0  00000+0 0  1430
2 26624 000.0258 148.9508 0002936 038.5906 243.4860 01.00272290 47374
0 ANIK F1
1 26624U 00076A   13293.48522895 -.00000090  00000-0  00000+0 0  1445
2 26624 000.0266 148.5947 0002855 041.0279 266.8794 01.00272473 47387
0 ANIK F1
1 26624U 00076A   13295.05521297 -.00000088  00000-0  00000+0 0  1453
2 26624 000.0288 149.4462 0003043 036.4282 117.3739 01.00272470 47392
